var fengyunDebris = [
"1 30377U 99025ACQ 18292.82378356  .00000072  00000-0  79936-4 0  9996",
"2 30377  99.1660 321.0489 0120951 246.6019 165.2279 13.96708391597556",
"1 30379U 99025ACS 18292.05074601 -.00000083  00000-0 -23331-4 0  9991",
"2 30379  99.0149 320.2709 0037846  41.1263  11.9172 14.05725747601206",
"1 30380U 99025ACT 18292.65260382  .00000131  00000-0  43105-4 0  9995",
"2 30380  98.8829 172.6650 0194411 109.0010 253.2354 14.44584954618397",
"1 30381U 99025ACU 18291.07275547  .00000412  00000-0  28155-3 0  9999",
"2 30381  99.0352 322.9246 0059667 195.0528 164.8865 14.04544983554257",
"1 30382U 99025ACV 18292.79940307  .00000186  00000-0  10004-3 0  9995",
"2 30382  98.7861 357.9746 0173803 325.4312 150.3757 14.16815989605078",
"1 30385U 99025ACY 18292.57402543  .00000123  00000-0  56499-4 0  9999",
"2 30385  99.0399 159.3374 0134954  12.7580  41.5052 14.33822430613154",
"1 30386U 99025ACZ 18292.46815779  .00000453  00000-0  57243-3 0  9990",
"2 30386  98.6503 120.3693 0325351  24.4192  30.2742 13.48011593575884",
"1 30387U 99025ADA 18292.76448010  .00000096  00000-0  76107-4 0  9998",
"2 30387  98.9163 321.2005 0001226  91.0579 329.8775 14.12510323604669",
"1 30388U 99025ADB 18292.60317427  .00000187  00000-0  95159-4 0  9998",
"2 30388  98.8849 325.8224 0235997 333.2220 147.3026 14.14024490605122",
"1 30389U 99025ADC 18292.88525610  .00000862  00000-0  41679-3 0  9991",
"2 30389  98.9629 286.1648 0015910 222.1482 204.4345 14.21189745605713",
"1 30390U 99025ADD 18292.62859333  .00000658  00000-0  35856-3 0  9990",
"2 30390  99.0109 328.8441 0083734  59.0412  62.3420 14.13869109603751",
"1 30391U 99025ADE 18292.60534223  .00000223  00000-0  15415-3 0  9994",
"2 30391  99.0147 330.2869 0081050  61.1315  63.8708 14.07417700600830",
"1 30392U 99025ADF 18292.59996568  .00000219  00000-0  14442-3 0  9991",
"2 30392  99.0489 323.2562 0191745  85.5692  40.7569 14.02661092600281",
"1 30393U 99025ADG 18292.55153247  .00000414  00000-0  31718-3 0  9999",
"2 30393  99.3376 275.4645 0071324 185.3834 293.6242 13.98045731598369",
"1 30394U 99025ADH 18292.83855101  .00000014  00000-0  43713-4 0  9994",
"2 30394  99.2519 238.5083 0090865 322.1014  93.8758 13.93867407597432",
"1 30395U 99025ADJ 18292.57774000  .00000067  00000-0  77066-4 0  9990",
"2 30395  99.1906 321.8150 0163782 326.7396 157.5525 13.93519794596651",
"1 30396U 99025ADK 18292.32168613  .00000028  00000-0  51290-4 0  9999",
"2 30396  98.3032 201.7280 0135702 139.4500 347.3545 13.86435485594082",
"1 30397U 99025ADL 18292.88142955  .00000373  00000-0  29430-3 0  9995",
"2 30397  98.3876 278.9643 0163390 148.4391 272.6105 13.90770082594431",
"1 30398U 99025ADM 18292.34559125  .00000179  00000-0  20957-3 0  9997",
"2 30398  99.7774  73.2841 0178597 217.8326 208.3094 13.75569007588560",
"1 30400U 99025ADP 18292.30058927  .00000540  00000-0  35732-3 0  9990",
"2 30400  99.1575 204.6779 0281575 254.8504 225.2036 13.88206128591538",
"1 30401U 99025ADQ 18292.30988923  .00000039  00000-0  33037-4 0  9999",
"2 30401  98.9078  56.7272 0111394 106.4522 254.8933 14.25960983610715",
"1 30403U 99025ADS 18292.55323868  .00000568  00000-0  36358-3 0  9994",
"2 30403  99.1934 296.4687 0094459 127.9659 233.0089 14.05375202600122",
"1 30404U 99025ADT 18292.00243477  .00000244  00000-0  40265-3 0  9995",
"2 30404  99.6664 110.5600 0388192 299.1105 219.8607 13.30656847232715",
"1 30405U 99025ADU 18292.46093509  .00000535  00000-0  30023-3 0  9999",
"2 30405  98.9159   0.4912 0063655  63.1234  59.0623 14.13797789603926",
"1 30406U 99025ADV 18292.03000942  .00000417  00000-0  52564-3 0  9995",
"2 30406  98.5876 117.9914 0298083 284.8090 231.0336 13.51929896578383",
"1 30409U 99025ADY 18292.32570253  .00000347  00000-0  23455-3 0  9996",
"2 30409  98.6167  47.4434 0174413 121.3213 298.3527 13.98922467598834",
"1 30411U 99025AEA 18292.36921601  .00000798  00000-0  58491-3 0  9998",
"2 30411  98.5554 346.8041 0148713 189.7940 170.0315 13.93311849595373",
"1 30413U 99025AEC 18292.60174858  .00001047  00000-0  61803-3 0  9990",
"2 30413 102.0842 291.7065 0064526 337.5099 149.1426 14.10376738601799",
"1 30414U 99025AED 18292.77645087  .00000766  00000-0  43027-3 0  9991",
"2 30414  99.0432   8.1170 0077996  49.1294  64.8283 14.12044647602502",
"1 30415U 99025AEE 18292.62327821  .00000568  00000-0  63429-3 0  9997",
"2 30415  99.8086 311.4314 0248449  81.7909  42.7865 13.63072580582571",
"1 30416U 99025AEF 18292.61877308 -.00000217  00000-0 -11326-3 0  9999",
"2 30416  99.1392 321.4483 0053435 219.6607 140.0644 14.00862286600658",
"1 30417U 99025AEG 18292.06703745  .00000067  00000-0  58811-4 0  9994",
"2 30417  98.7704 322.8668 0065975   2.3699  50.3464 14.12020916605120",
"1 30418U 99025AEH 18292.81249315  .00000327  00000-0  67815-4 0  9999",
"2 30418  98.7934 219.4083 0162023 266.7253 159.6508 14.60178957623799",
"1 30419U 99025AEJ 18292.49413148  .00000310  00000-0  19291-3 0  9997",
"2 30419  99.3387 110.1511 0056194 144.3090 277.0722 14.11814088604557",
"1 30420U 99025AEK 18292.47378698  .00000642  00000-0  83602-4 0  9993",
"2 30420  98.9354 358.9482 0166136  73.7597  50.6713 14.75737249627184",
"1 30423U 99025AEN 18292.36599390  .00001333  00000-0  42611-3 0  9990",
"2 30423  98.5449 222.5611 0069053 250.4342 229.9144 14.39971611611837",
"1 30429U 99025AEQ 18292.27087935  .00002409  00000-0  30411-3 0  9993",
"2 30429  99.1531  39.3076 0061549   3.0733 357.0842 14.81805535624817",
"1 30432U 99025AET 18292.84780045  .00000246  00000-0  10177-3 0  9996",
"2 30432  98.8791  67.2133 0093520  80.2608  23.2871 14.32929576613316",
"1 30434U 99025AEV 18292.62252148  .00000081  00000-0  96065-4 0  9990",
"2 30434  99.1010 330.6416 0125176 118.1093   6.6288 13.88497583594547",
"1 30435U 99025AEW 18292.57681417  .00000292  00000-0  32073-3 0  9992",
"2 30435  99.0399  35.0831 0233814 152.3905 335.6280 13.68240328583664",
"1 30436U 99025AEX 18292.07388208  .00000718  00000-0  46635-3 0  9992",
"2 30436  98.4092 327.4734 0130578   4.1946  47.6454 14.01347762597396",
"1 30437U 99025AEY 18292.77725795  .00000781  00000-0  24955-3 0  9997",
"2 30437  98.9807 120.6379 0079602  38.2862  89.2225 14.40923070614471",
"1 30438U 99025AEZ 18292.31695111  .00000138  00000-0  14506-3 0  9993",
"2 30438  98.8475  55.4572 0146047  86.3374 275.4470 13.84837117591313",
"1 30439U 99025AFA 18292.33926837  .00000191  00000-0  14262-3 0  9996",
"2 30439  98.9858 321.9191 0039586 111.7349  15.9745 14.05924611600742",
"1 30441U 99025AFC 18292.46323993  .00000154  00000-0  17994-3 0  9991",
"2 30441  98.9439 111.1223 0189015 335.8284  23.4084 13.74910483589647",
"1 30442U 99025AFD 18292.12159917  .00000634  00000-0  37157-3 0  9994",
"2 30442  98.9876 348.6151 0071670 149.0291 273.9433 14.10551498602183",
"1 30443U 99025AFE 18292.55142664  .00000717  00000-0  39220-3 0  9998",
"2 30443  98.7962 210.9103 0034737 285.3244  74.4092 14.14816052603642",
"1 30444U 99025AFF 18292.44351883  .00001454  00000-0  53774-3 0  9991",
"2 30444  99.2920  97.5532 0248922 215.1906 200.1995 14.18383189602842",
"1 30445U 99025AFG 18292.49494507  .00000175  00000-0  66674-4 0  9991",
"2 30445  98.9397 110.9370 0120053 224.3934 134.7581 14.39840371615520",
"1 30446U 99025AFH 18292.79482331  .00000703  00000-0  31445-3 0  9991",
"2 30446  98.8161 336.5386 0047675 182.6274 177.4661 14.25203191608920",
"1 30447U 99025AFJ 18292.51563118  .00000997  00000-0  43004-3 0  9994",
"2 30447  98.9191  30.7287 0102188  93.4550  34.9169 14.23989799607220",
"1 30448U 99025AFK 18292.59459346  .00000726  00000-0  38372-3 0  9992",
"2 30448  99.0000 323.9116 0022362 312.7257 164.0787 14.16895952602388",
"1 30450U 99025AFM 18292.86952226  .00000275  00000-0  66287-4 0  9996",
"2 30450  98.3537 336.0117 0231413 315.6451  95.3720 14.46672258617408",
"1 30451U 99025AFN 18292.54821281  .00001634  00000-0  41186-3 0  9998",
"2 30451  98.9256 131.8689 0062376 339.2999  86.2102 14.51482726615212",
"1 30452U 99025AFP 18292.40136108  .00000704  00000-0  30916-3 0  9997",
"2 30452  99.3171 189.2853 0085246 240.7488 179.4782 14.25188334606908",
"1 30453U 99025AFQ 18292.79930941  .00000522  00000-0  28445-3 0  9999",
"2 30453  99.0334 325.6694 0135143  88.1373 332.2108 14.11883135603011",
"1 30454U 99025AFR 18292.56317416  .00001344  00000-0  84472-3 0  9996",
"2 30454  98.1321 151.4352 0220011  38.6681  18.2498 13.94554438594221",
"1 30455U 99025AFS 18292.41495270  .00011641  00000-0  29514-3 0  9993",
"2 30455  98.7986 102.8111 0064499 217.4723 142.2013 15.37762659637480",
"1 30462U 99025AFZ 18292.60689681  .00000246  00000-0  16590-3 0  9992",
"2 30462  98.8714 321.7841 0142820  12.4842 105.4952 14.04434855601289",
"1 30464U 99025AGB 18292.54246019  .00000061  00000-0  57817-4 0  9994",
"2 30464  99.1499 301.5010 0110775  28.7269  92.5657 14.09440760603519",
"1 30465U 99025AGC 18292.59116587  .00000713  00000-0  38090-3 0  9991",
"2 30465  99.0026 322.5093 0021975 321.1098 163.1596 14.16404428602742",
"1 30466U 99025AGD 18292.37705608  .00000564  00000-0  30533-3 0  9994",
"2 30466  98.8889 338.2550 0130828 276.8490 204.5410 14.12315005604160",
"1 30467U 99025AGE 18292.35513955  .00000383  00000-0  23858-3 0  9996",
"2 30467  98.9397 329.1724 0070589 329.6797  95.2799 14.09658836603478",
"1 30468U 99025AGF 18292.60941517  .00000749  00000-0  45463-3 0  9996",
"2 30468  99.1212 326.7396 0086481 187.1741 291.8570 14.07619571599791",
"1 30469U 99025AGG 18292.59969840  .00000380  00000-0  30302-3 0  9991",
"2 30469  98.4833 318.1499 0171106 192.9375 290.0278 13.89763868593831",
"1 30471U 99025AGJ 18292.59914329  .00000368  00000-0  26141-3 0  9998",
"2 30471  99.2147 326.1254 0092630 306.7109 178.7652 14.02136333597652",
"1 30472U 99025AGK 18292.39565322  .00000844  00000-0  36728-3 0  9993",
"2 30472  98.8068 343.6574 0060009 192.5865 296.1083 14.25751453606581"
];
